{
  "type": "FeatureCollection",
  "features": [
    {
      "type": "Feature",
      "properties": {
        "norad_id": 66855,
        "name": "STARLINK-36090",
        "group": "last-30-days",
        "lat": -26.91374207686178,
        "lon": 43.92720755749682,
        "alt_km": 346.2847246213714,
        "timestamp": "2025-12-20T03:42:46.121271+00:00",
        "meta_object_name": "STARLINK-36090",
        "meta_object_id": "2025-281H",
        "meta_epoch": "2025-12-19T20:00:01.999008",
        "meta_mean_motion": 15.75043291,
        "meta_eccentricity": 0.000132,
        "meta_inclination": 43.0008,
        "meta_ra_of_asc_node": 78.8848,
        "meta_arg_of_pericenter": 278.306,
        "meta_mean_anomaly": 15.8481,
        "meta_ephemeris_type": 0,
        "meta_classification_type": "U",
        "meta_norad_cat_id": 66855,
        "meta_element_set_no": 999,
        "meta_rev_at_epoch": 241,
        "meta_bstar": 3.4915e-05,
        "meta_mean_motion_dot": 4.89e-05,
        "meta_mean_motion_ddot": 0,
        "tle_line1": "1 66855U 25281H   25353.83335647  .00004890  00000+0  34915-4 0  9991",
        "tle_line2": "2 66855  43.0008  78.8848 0001320 278.3060  15.8481 15.75043291  2413"
      },
      "geometry": {
        "type": "Point",
        "coordinates": [
          43.92720755749682,
          -26.91374207686178
        ]
      }
    },
    {
      "type": "Feature",
      "properties": {
        "norad_id": 66856,
        "name": "STARLINK-36072",
        "group": "last-30-days",
        "lat": -25.806203610746017,
        "lon": 45.67071877624202,
        "alt_km": 346.0944352800043,
        "timestamp": "2025-12-20T03:42:46.121283+00:00",
        "meta_object_name": "STARLINK-36072",
        "meta_object_id": "2025-281J",
        "meta_epoch": "2025-12-19T20:00:01.999008",
        "meta_mean_motion": 15.75035231,
        "meta_eccentricity": 0.0001646,
        "meta_inclination": 43.0007,
        "meta_ra_of_asc_node": 78.8801,
        "meta_arg_of_pericenter": 274.4091,
        "meta_mean_anomaly": 21.6635,
        "meta_ephemeris_type": 0,
        "meta_classification_type": "U",
        "meta_norad_cat_id": 66856,
        "meta_element_set_no": 999,
        "meta_rev_at_epoch": 253,
        "meta_bstar": 0.00016351,
        "meta_mean_motion_dot": 0.00024708,
        "meta_mean_motion_ddot": 0,
        "tle_line1": "1 66856U 25281J   25353.83335647  .00024708  00000+0  16351-3 0  9995",
        "tle_line2": "2 66856  43.0007  78.8801 0001646 274.4091  21.6635 15.75035231  2538"
      },
      "geometry": {
        "type": "Point",
        "coordinates": [
          45.67071877624202,
          -25.806203610746017
        ]
      }
    },
    {
      "type": "Feature",
      "properties": {
        "norad_id": 66857,
        "name": "STARLINK-36083",
        "group": "last-30-days",
        "lat": -24.68262491666038,
        "lon": 47.374799992834745,
        "alt_km": 346.03437707034936,
        "timestamp": "2025-12-20T03:42:46.121293+00:00",
        "meta_object_name": "STARLINK-36083",
        "meta_object_id": "2025-281K",
        "meta_epoch": "2025-12-19T20:00:01.999008",
        "meta_mean_motion": 15.75037317,
        "meta_eccentricity": 0.0001584,
        "meta_inclination": 43.0007,
        "meta_ra_of_asc_node": 78.8752,
        "meta_arg_of_pericenter": 278.5782,
        "meta_mean_anomaly": 19.4115,
        "meta_ephemeris_type": 0,
        "meta_classification_type": "U",
        "meta_norad_cat_id": 66857,
        "meta_element_set_no": 999,
        "meta_rev_at_epoch": 253,
        "meta_bstar": 6.1689e-05,
        "meta_mean_motion_dot": 9.008e-05,
        "meta_mean_motion_ddot": 0,
        "tle_line1": "1 66857U 25281K   25353.83335647  .00009008  00000+0  61689-4 0  9997",
        "tle_line2": "2 66857  43.0007  78.8752 0001584 278.5782  19.4115 15.75037317  2532"
      },
      "geometry": {
        "type": "Point",
        "coordinates": [
          47.374799992834745,
          -24.68262491666038
        ]
      }
    },
    {
      "type": "Feature",
      "properties": {
        "norad_id": 66858,
        "name": "STARLINK-35118",
        "group": "last-30-days",
        "lat": -23.525028205192985,
        "lon": 49.06895145221561,
        "alt_km": 345.9783895774217,
        "timestamp": "2025-12-20T03:42:46.121303+00:00",
        "meta_object_name": "STARLINK-35118",
        "meta_object_id": "2025-281L",
        "meta_epoch": "2025-12-19T20:00:01.999008",
        "meta_mean_motion": 15.75061413,
        "meta_eccentricity": 0.0001744,
        "meta_inclination": 43.0008,
        "meta_ra_of_asc_node": 78.8694,
        "meta_arg_of_pericenter": 271.6233,
        "meta_mean_anomaly": 28.2836,
        "meta_ephemeris_type": 0,
        "meta_classification_type": "U",
        "meta_norad_cat_id": 66858,
        "meta_element_set_no": 999,
        "meta_rev_at_epoch": 232,
        "meta_bstar": -0.00012893,
        "meta_mean_motion_dot": -0.00020255,
        "meta_mean_motion_ddot": 0,
        "tle_line1": "1 66858U 25281L   25353.83335647 -.00020255  00000+0 -12893-3 0  9999",
        "tle_line2": "2 66858  43.0008  78.8694 0001744 271.6233  28.2836 15.75061413  2321"
      },
      "geometry": {
        "type": "Point",
        "coordinates": [
          49.06895145221561,
          -23.525028205192985
        ]
      }
    },
    {
      "type": "Feature",
      "properties": {
        "norad_id": 66859,
        "name": "STARLINK-35646",
        "group": "last-30-days",
        "lat": -22.361144710442986,
        "lon": 50.71933837796499,
        "alt_km": 345.9302244776136,
        "timestamp": "2025-12-20T03:42:46.121315+00:00",
        "meta_object_name": "STARLINK-35646",
        "meta_object_id": "2025-281M",
        "meta_epoch": "2025-12-19T20:00:01.999008",
        "meta_mean_motion": 15.75041663,
        "meta_eccentricity": 0.0001721,
        "meta_inclination": 43.0014,
        "meta_ra_of_asc_node": 78.8657,
        "meta_arg_of_pericenter": 271.9845,
        "meta_mean_anomaly": 29.8539,
        "meta_ephemeris_type": 0,
        "meta_classification_type": "U",
        "meta_norad_cat_id": 66859,
        "meta_element_set_no": 999,
        "meta_rev_at_epoch": 253,
        "meta_bstar": 4.373e-05,
        "meta_mean_motion_dot": 6.245e-05,
        "meta_mean_motion_ddot": 0,
        "tle_line1": "1 66859U 25281M   25353.83335647  .00006245  00000+0  43730-4 0  9996",
        "tle_line2": "2 66859  43.0014  78.8657 0001721 271.9845  29.8539 15.75041663  2530"
      },
      "geometry": {
        "type": "Point",
        "coordinates": [
          50.71933837796499,
          -22.361144710442986
        ]
      }
    },
    {
      "type": "Feature",
      "properties": {
        "norad_id": 66860,
        "name": "STARLINK-35987",
        "group": "last-30-days",
        "lat": -16.331312404316932,
        "lon": 58.56409955270459,
        "alt_km": 345.59566133240423,
        "timestamp": "2025-12-20T03:42:46.121326+00:00",
        "meta_object_name": "STARLINK-35987",
        "meta_object_id": "2025-281N",
        "meta_epoch": "2025-12-19T20:00:01.999008",
        "meta_mean_motion": 15.75047982,
        "meta_eccentricity": 0.0001611,
        "meta_inclination": 43.001,
        "meta_ra_of_asc_node": 78.841,
        "meta_arg_of_pericenter": 270.9615,
        "meta_mean_anomaly": 40.4356,
        "meta_ephemeris_type": 0,
        "meta_classification_type": "U",
        "meta_norad_cat_id": 66860,
        "meta_element_set_no": 999,
        "meta_rev_at_epoch": 253,
        "meta_bstar": 5.2909e-05,
        "meta_mean_motion_dot": 7.66e-05,
        "meta_mean_motion_ddot": 0,
        "tle_line1": "1 66860U 25281N   25353.83335647  .00007660  00000+0  52909-4 0  9998",
        "tle_line2": "2 66860  43.0010  78.8410 0001611 270.9615  40.4356 15.75047982  2533"
      },
      "geometry": {
        "type": "Point",
        "coordinates": [
          58.56409955270459,
          -16.331312404316932
        ]
      }
    },
    {
      "type": "Feature",
      "properties": {
        "norad_id": 66861,
        "name": "STARLINK-35991",
        "group": "last-30-days",
        "lat": -19.996264385811187,
        "lon": 53.91989497622289,
        "alt_km": 345.7540350437703,
        "timestamp": "2025-12-20T03:42:46.121336+00:00",
        "meta_object_name": "STARLINK-35991",
        "meta_object_id": "2025-281P",
        "meta_epoch": "2025-12-19T20:00:01.999008",
        "meta_mean_motion": 15.75045933,
        "meta_eccentricity": 0.0001663,
        "meta_inclination": 43.0009,
        "meta_ra_of_asc_node": 78.8558,
        "meta_arg_of_pericenter": 274.9012,
        "meta_mean_anomaly": 30.7491,
        "meta_ephemeris_type": 0,
        "meta_classification_type": "U",
        "meta_norad_cat_id": 66861,
        "meta_element_set_no": 999,
        "meta_rev_at_epoch": 253,
        "meta_bstar": 6.2384e-05,
        "meta_mean_motion_dot": 9.118e-05,
        "meta_mean_motion_ddot": 0,
        "tle_line1": "1 66861U 25281P   25353.83335647  .00009118  00000+0  62384-4 0  9997",
        "tle_line2": "2 66861  43.0009  78.8558 0001663 274.9012  30.7491 15.75045933  2533"
      },
      "geometry": {
        "type": "Point",
        "coordinates": [
          53.91989497622289,
          -19.996264385811187
        ]
      }
    }
  ]
}